0 SL-8 R/B
1 26387U 00033D   13282.15840262  .00000430  00000-0  85678-4 0  3210
2 26387 098.1400 347.1557 0025987 286.5352 095.0240 14.66836899710282
0 SL-8 R/B
1 26387U 00033D   13283.25342984  .00000421  00000-0  83932-4 0  3222
2 26387 098.1400 348.2425 0025947 282.9299 117.5831 14.66838433710444
0 SL-8 R/B
1 26387U 00033D   13285.85503808  .00000442  00000-0  87724-4 0  3242
2 26387 098.1398 350.8250 0025986 274.3229 176.0780 14.66840113710829
0 SL-8 R/B
1 26387U 00033D   13287.14984447  .00000530  00000-0  10339-3 0  3254
2 26387 098.1395 352.1102 0025980 270.0622 173.6377 14.66841557711011
0 SL-8 R/B
1 26387U 00033D   13288.23246310  .00000793  00000-0  15018-3 0  3266
2 26387 098.1393 353.1850 0026055 266.5412 130.6493 14.66843894711176
0 SL-8 R/B
1 26387U 00033D   13289.25629706  .00000571  00000-0  11063-3 0  3274
2 26387 098.1391 354.2013 0026110 263.1600 137.2923 14.66846371711322
0 SL-8 R/B
1 26387U 00033D   13290.27973520  .00000671  00000-0  12851-3 0  3282
2 26387 098.1388 355.2171 0026131 259.7946 141.8410 14.66847613711479
0 SL-8 R/B
1 26387U 00033D   13291.30398909  .00000650  00000-0  12483-3 0  3298
2 26387 098.1385 356.2337 0026168 256.4083 150.7204 14.66848848711625
0 SL-8 R/B
1 26387U 00033D   13292.82160855  .00000743  00000-0  14139-3 0  3308
2 26387 098.1382 357.7399 0026180 251.3449 245.0209 14.66850612711849
0 SL-8 R/B
1 26387U 00033D   13293.84283106  .00000739  00000-0  14067-3 0  3312
2 26387 098.1381 358.7533 0026234 247.9791 237.8941 14.66851840711992
0 SL-8 R/B
1 26387U 00033D   13295.26898141  .00000720  00000-0  13727-3 0  3324
2 26387 098.1382 000.1685 0026342 243.3834 209.0113 14.66854595712204
